ORBCOMM FM37            
1 33064U 08031E   25318.57380023  .00003554  00000+0  48723-3 0  9998
2 33064  48.4399 348.3856 0005856 300.5470 194.5340 14.80441795936327
ORBCOMM FM40            
1 33065U 08031F   25318.79467860  .00003753  00000+0  48411-3 0  9993
2 33065  48.4413 328.7623 0006828 316.8283 213.5495 14.82900072936504
VESSELSAT 1             
1 37840U 11058C   25318.54957012  .00000479  00000+0  11664-3 0  9999
2 37840  19.9622 264.0244 0013715  41.2037 318.9401 14.11390241727579
ORBCOMM FM109           
1 40086U 14040A   25318.57244801  .00001697  00000+0  39847-3 0  9993
2 40086  47.0050  25.9154 0002333 293.7211  66.3429 14.58466708603017
ORBCOMM FM107           
1 40087U 14040B   25318.18221165  .00002462  00000+0  56062-3 0  9998
2 40087  47.0057  28.6602 0002072 254.3701 105.6956 14.58546625603031
ORBCOMM FM106           
1 40088U 14040C   25318.68163791  .00002326  00000+0  41514-3 0  9999
2 40088  47.0580 196.2814 0016250  45.0489 315.1717 14.69921836605613
ORBCOMM FM111           
1 40089U 14040D   25317.60566248  .00009881  00000+0  10925-2 0  9999
2 40089  47.0017  31.1488 0029220 190.9992 169.0270 14.87441846612462
ORBCOMM FM104           
1 40090U 14040E   25318.33623222  .00002110  00000+0  50207-3 0  9994
2 40090  47.0049  63.3570 0016413 174.1834 185.9244 14.56935744602511
